[
    {
        "Altitude(m)": 706733.874939906,
        "Argument of Periapsis(deg)": 0.009112096949301655,
        "Eccentricity": 0.0,
        "Inclination(deg)": 45.0,
        "Latitude(deg)": 42.57804261068845,
        "Longitude(deg)": -106.66380877076624,
        "Mean Anomaly(deg)": 107.40837331798463,
        "RAAN(deg)": 239.9913984468334,
        "Satellite Name": "Constellation 1 1062",
        "Satellite Number": 1062,
        "Semi-Major Axis(m)": 7083131.272910544,
        "Time(s)": 152
    },
    {
        "Altitude(m)": 706730.0095261954,
        "Argument of Periapsis(deg)": 0.009172044955547059,
        "Eccentricity": 0.0,
        "Inclination(deg)": 45.0,
        "Latitude(deg)": 42.56054836999058,
        "Longitude(deg)": -106.58913192746431,
        "Mean Anomaly(deg)": 107.46907445823452,
        "RAAN(deg)": 239.99134185766783,
        "Satellite Name": "Constellation 1 1062",
        "Satellite Number": 1062,
        "Semi-Major Axis(m)": 7083131.272910544,
        "Time(s)": 153
    },
    {
        "Altitude(m)": 706726.1328982229,
        "Argument of Periapsis(deg)": 0.009231992961792466,
        "Eccentricity": 0.0,
        "Inclination(deg)": 45.0,
        "Latitude(deg)": 42.54299995708147,
        "Longitude(deg)": -106.51449912749013,
        "Mean Anomaly(deg)": 107.52977559848445,
        "RAAN(deg)": 239.99128526850228,
        "Satellite Name": "Constellation 1 1062",
        "Satellite Number": 1062,
        "Semi-Major Axis(m)": 7083131.272910544,
        "Time(s)": 154
    },
    {
        "Altitude(m)": 706722.245079068,
        "Argument of Periapsis(deg)": 0.009291940968037872,
        "Eccentricity": 0.0,
        "Inclination(deg)": 45.0,
        "Latitude(deg)": 42.52539743490443,
        "Longitude(deg)": -106.43991045497523,
        "Mean Anomaly(deg)": 107.59047673873434,
        "RAAN(deg)": 239.9912286793367,
        "Satellite Name": "Constellation 1 1062",
        "Satellite Number": 1062,
        "Semi-Major Axis(m)": 7083131.272910544,
        "Time(s)": 155
    },
    {
        "Altitude(m)": 706718.3460918925,
        "Argument of Periapsis(deg)": 0.009351888974283276,
        "Eccentricity": 0.0,
        "Inclination(deg)": 45.0,
        "Latitude(deg)": 42.507740866506126,
        "Longitude(deg)": -106.36536616158453,
        "Mean Anomaly(deg)": 107.65117787898421,
        "RAAN(deg)": 239.99117209017115,
        "Satellite Name": "Constellation 1 1062",
        "Satellite Number": 1062,
        "Semi-Major Axis(m)": 7083131.272910544,
        "Time(s)": 156
    },
    {
        "Altitude(m)": 706714.4359599191,
        "Argument of Periapsis(deg)": 0.00941183698052868,
        "Eccentricity": 0.0,
        "Inclination(deg)": 45.0,
        "Latitude(deg)": 42.49003031503525,
        "Longitude(deg)": -106.29086599412965,
        "Mean Anomaly(deg)": 107.71187901923416,
        "RAAN(deg)": 239.9911155010056,
        "Satellite Name": "Constellation 1 1062",
        "Satellite Number": 1062,
        "Semi-Major Axis(m)": 7083131.272910544,
        "Time(s)": 157
    },
    {
        "Altitude(m)": 706710.5147064372,
        "Argument of Periapsis(deg)": 0.009471784986774088,
        "Eccentricity": 0.0,
        "Inclination(deg)": 45.0,
        "Latitude(deg)": 42.472265843742385,
        "Longitude(deg)": -106.21641020314992,
        "Mean Anomaly(deg)": 107.77258015948404,
        "RAAN(deg)": 239.99105891183999,
        "Satellite Name": "Constellation 1 1062",
        "Satellite Number": 1062,
        "Semi-Major Axis(m)": 7083131.272910544,
        "Time(s)": 158
    },
    {
        "Altitude(m)": 706706.5823548073,
        "Argument of Periapsis(deg)": 0.009531732993019492,
        "Eccentricity": 0.0,
        "Inclination(deg)": 45.0,
        "Latitude(deg)": 42.454447515978444,
        "Longitude(deg)": -106.14199887052506,
        "Mean Anomaly(deg)": 107.83328129973393,
        "RAAN(deg)": 239.99100232267443,
        "Satellite Name": "Constellation 1 1062",
        "Satellite Number": 1062,
        "Semi-Major Axis(m)": 7083131.272910544,
        "Time(s)": 159
    },
    {
        "Altitude(m)": 706702.6389284639,
        "Argument of Periapsis(deg)": 0.009591680999264898,
        "Eccentricity": 0.0,
        "Inclination(deg)": 45.0,
        "Latitude(deg)": 42.43657539519418,
        "Longitude(deg)": -106.06763207757294,
        "Mean Anomaly(deg)": 107.89398243998382,
        "RAAN(deg)": 239.99094573350888,
        "Satellite Name": "Constellation 1 1062",
        "Satellite Number": 1062,
        "Semi-Major Axis(m)": 7083131.272910544,
        "Time(s)": 160
    },
    {
        "Altitude(m)": 706698.6844509017,
        "Argument of Periapsis(deg)": 0.009651629005510304,
        "Eccentricity": 0.0,
        "Inclination(deg)": 45.0,
        "Latitude(deg)": 42.4186495449391,
        "Longitude(deg)": -105.9933099050494,
        "Mean Anomaly(deg)": 107.95468358023375,
        "RAAN(deg)": 239.99088914434333,
        "Satellite Name": "Constellation 1 1062",
        "Satellite Number": 1062,
        "Semi-Major Axis(m)": 7083131.272910544,
        "Time(s)": 161
    },
    {
        "Altitude(m)": 706694.7189456953,
        "Argument of Periapsis(deg)": 0.00971157701175571,
        "Eccentricity": 0.0,
        "Inclination(deg)": 45.0,
        "Latitude(deg)": 42.40067002886059,
        "Longitude(deg)": -105.9190324331488,
        "Mean Anomaly(deg)": 108.01538472048364,
        "RAAN(deg)": 239.99083255517775,
        "Satellite Name": "Constellation 1 1062",
        "Satellite Number": 1062,
        "Semi-Major Axis(m)": 7083131.272910544,
        "Time(s)": 162
    },
    {
        "Altitude(m)": 706690.7424364757,
        "Argument of Periapsis(deg)": 0.009771525018001118,
        "Eccentricity": 0.0,
        "Inclination(deg)": 45.0,
        "Latitude(deg)": 42.382636910703276,
        "Longitude(deg)": -105.8447999096012,
        "Mean Anomaly(deg)": 108.07608586073351,
        "RAAN(deg)": 239.99077596601214,
        "Satellite Name": "Constellation 1 1062",
        "Satellite Number": 1062,
        "Semi-Major Axis(m)": 7083131.272910544,
        "Time(s)": 163
    },
    {
        "Altitude(m)": 706686.754946954,
        "Argument of Periapsis(deg)": 0.00983147302424652,
        "Eccentricity": 0.0,
        "Inclination(deg)": 45.0,
        "Latitude(deg)": 42.36455025430747,
        "Longitude(deg)": -105.77061207728532,
        "Mean Anomaly(deg)": 108.13678700098347,
        "RAAN(deg)": 239.99071937684658,
        "Satellite Name": "Constellation 1 1062",
        "Satellite Number": 1062,
        "Semi-Major Axis(m)": 7083131.272910544,
        "Time(s)": 164
    },
    {
        "Altitude(m)": 706682.7565008964,
        "Argument of Periapsis(deg)": 0.009891421030491928,
        "Eccentricity": 0.0,
        "Inclination(deg)": 45.0,
        "Latitude(deg)": 42.346410123609274,
        "Longitude(deg)": -105.69646918280995,
        "Mean Anomaly(deg)": 108.19748814123334,
        "RAAN(deg)": 239.99066278768103,
        "Satellite Name": "Constellation 1 1062",
        "Satellite Number": 1062,
        "Semi-Major Axis(m)": 7083131.272910544,
        "Time(s)": 165
    },
    {
        "Altitude(m)": 706678.747122154,
        "Argument of Periapsis(deg)": 0.009951369036737332,
        "Eccentricity": 0.0,
        "Inclination(deg)": 45.0,
        "Latitude(deg)": 42.32821658263884,
        "Longitude(deg)": -105.62237130412674,
        "Mean Anomaly(deg)": 108.25818928148324,
        "RAAN(deg)": 239.99060619851548,
        "Satellite Name": "Constellation 1 1062",
        "Satellite Number": 1062,
        "Semi-Major Axis(m)": 7083131.272910544,
        "Time(s)": 166
    },
    {
        "Altitude(m)": 706674.7268346335,
        "Argument of Periapsis(deg)": 0.010011317042982738,
        "Eccentricity": 0.0,
        "Inclination(deg)": 45.0,
        "Latitude(deg)": 42.309969695520046,
        "Longitude(deg)": -105.54831851862788,
        "Mean Anomaly(deg)": 108.31889042173313,
        "RAAN(deg)": 239.9905496093499,
        "Satellite Name": "Constellation 1 1062",
        "Satellite Number": 1062,
        "Semi-Major Axis(m)": 7083131.272910544,
        "Time(s)": 167
    },
    {
        "Altitude(m)": 706670.6956623083,
        "Argument of Periapsis(deg)": 0.010071265049228144,
        "Eccentricity": 0.0,
        "Inclination(deg)": 45.0,
        "Latitude(deg)": 42.2916695264692,
        "Longitude(deg)": -105.47431090314626,
        "Mean Anomaly(deg)": 108.37959156198306,
        "RAAN(deg)": 239.9904930201843,
        "Satellite Name": "Constellation 1 1062",
        "Satellite Number": 1062,
        "Semi-Major Axis(m)": 7083131.272910544,
        "Time(s)": 168
    },
    {
        "Altitude(m)": 706666.6536292371,
        "Argument of Periapsis(deg)": 0.01013121305547355,
        "Eccentricity": 0.0,
        "Inclination(deg)": 45.0,
        "Latitude(deg)": 42.27331613979448,
        "Longitude(deg)": -105.40034853395579,
        "Mean Anomaly(deg)": 108.44029270223295,
        "RAAN(deg)": 239.99043643101874,
        "Satellite Name": "Constellation 1 1062",
        "Satellite Number": 1062,
        "Semi-Major Axis(m)": 7083131.272910544,
        "Time(s)": 169
    },
    {
        "Altitude(m)": 706662.6007595229,
        "Argument of Periapsis(deg)": 0.010191161061718957,
        "Eccentricity": 0.0,
        "Inclination(deg)": 45.0,
        "Latitude(deg)": 42.25490959989497,
        "Longitude(deg)": -105.32643148677204,
        "Mean Anomaly(deg)": 108.50099384248283,
        "RAAN(deg)": 239.99037984185318,
        "Satellite Name": "Constellation 1 1062",
        "Satellite Number": 1062,
        "Semi-Major Axis(m)": 7083131.272910544,
        "Time(s)": 170
    }
]